STARLINK-1848           
1 46740U 20074B   22287.10662882  .00002159  00000+0  16378-3 0  9992
2 46740  53.0539 144.7998 0001330 109.1954 250.9178 15.06397615109326
STARLINK-1865           
1 46741U 20074C   22286.85828810  .00004031  00000+0  28935-3 0  9992
2 46741  53.0553 140.9131 0001375 102.7138 257.4005 15.06399949109358
STARLINK-1872           
1 46742U 20074D   22286.98126831  .00155552  00000+0  27567-2 0  9995
2 46742  53.0544 133.5286 0000911  51.8986 308.2103 15.49232349109472
STARLINK-1892           
1 46743U 20074E   22286.32014139  .00002796  00000+0  20654-3 0  9993
2 46743  53.0546 143.3093 0001355 124.7974 235.3142 15.06398260109279
STARLINK-1894           
1 46744U 20074F   22286.86839859  .00003343  00000+0  24319-3 0  9998
2 46744  53.0528 140.8644 0001528  80.1638 279.9524 15.06400287109358
STARLINK-1898           
1 46745U 20074G   22286.60263266  .00050797  00000+0  31260-3 0  9992
2 46745  53.0482  46.2806 0002806  18.5358 341.5763 15.76716184110661
STARLINK-1905           
1 46746U 20074H   22286.02158502  .00000373  00000+0  43953-4 0  9993
2 46746  53.0542 144.6658 0001438  76.5882 283.5267 15.06392489109228
STARLINK-1908           
1 46747U 20074J   22286.86566305  .00008190  00000+0  56794-3 0  9991
2 46747  53.0508 140.8803 0001551 108.2151 251.9007 15.06411084109357
STARLINK-1910           
1 46748U 20074K   22287.00572543  .00002484  00000+0  18561-3 0  9990
2 46748  53.0530 140.2440 0001349 110.2111 249.9023 15.06395485109393
STARLINK-1911           
1 46749U 20074L   22286.68136222  .00002329  00000+0  17520-3 0  9996
2 46749  53.0538 141.7075 0001147 107.0115 253.1000 15.06391936109328
STARLINK-1920           
1 46751U 20074N   22287.07576870 -.00000424  00000+0 -95621-5 0  9996
2 46751  53.0552 139.9429 0001522 123.4259 236.6876 15.06385576109394
STARLINK-1921           
1 46752U 20074P   22286.88777240  .00002499  00000+0  18664-3 0  9991
2 46752  53.0558 140.7758 0001532 115.8097 244.3050 15.06395385109357
STARLINK-1922           
1 46753U 20074Q   22287.05365250  .00005454  00000+0  38479-3 0  9996
2 46753  53.0549 140.0374 0001066  85.7245 274.3865 15.06392604109401
STARLINK-1923           
1 46754U 20074R   22286.86196940  .00000933  00000+0  81528-4 0  9994
2 46754  53.0589 140.8825 0000978 150.1842 209.9203 15.06397474109350
STARLINK-1924           
1 46755U 20074S   22286.86705265  .00001110  00000+0  93433-4 0  9997
2 46755  53.0534 145.8586 0001427 110.3931 249.7211 15.06384075109283
STARLINK-1925           
1 46756U 20074T   22286.69753175  .00000920  00000+0  80659-4 0  9996
2 46756  53.0544 147.0202 0001359 109.9169 250.1966 15.06395741109257
STARLINK-1926           
1 46757U 20074U   22286.91130922  .00006510  00000+0  45540-3 0  9991
2 46757  53.0510 145.8989 0001625  92.4039 267.7136 15.06409230109293
STARLINK-1928           
1 46758U 20074V   22286.91496263  .00002147  00000+0  16302-3 0  9991
2 46758  53.0535 145.6399 0001357  82.8416 277.2727 15.06388943109310
STARLINK-1833           
1 46759U 20074W   22286.91034355 -.00000648  00000+0 -24614-4 0  9994
2 46759  53.0545 155.6872 0001285 100.6317 259.4817 15.06395846109141
STARLINK-1896           
1 46760U 20074X   22287.05410457  .00001783  00000+0  13856-3 0  9997
2 46760  53.0543 155.0377 0001258 114.3145 245.7975 15.06392933109198
STARLINK-1902           
1 46763U 20074AA  22286.69861525  .00228195  00000+0  13548-2 0  9990
2 46763  53.0506  82.0270 0001505  23.4200 336.6888 15.76831786110183
STARLINK-1903           
1 46764U 20074AB  22286.91403388  .00000661  00000+0  63238-4 0  9994
2 46764  53.0547 155.6651 0001450  86.8034 273.3121 15.06400548109160
STARLINK-1906           
1 46765U 20074AC  22286.90298270  .00001756  00000+0  13676-3 0  9992
2 46765  53.0539 155.6945 0001386 110.0960 250.0178 15.06391161109146
STARLINK-1916           
1 46766U 20074AD  22286.89561135  .00002074  00000+0  15811-3 0  9991
2 46766  53.0559 155.7477 0001050 106.0721 254.0384 15.06393451108885
STARLINK-1917           
1 46767U 20074AE  22286.72605222  .00000208  00000+0  32828-4 0  9995
2 46767  53.0521 156.5072 0001177 103.2275 256.8845 15.06395902109121
STARLINK-1918           
1 46768U 20074AF  22286.99513306  .00004938  00000+0  35033-3 0  9990
2 46768  53.0543 155.2916 0001385  77.1657 282.9487 15.06381568109184
STARLINK-1932           
1 46770U 20074AH  22286.93622728  .00000800  00000+0  72624-4 0  9998
2 46770  53.0555 156.1183 0001335  89.0555 271.0587 15.06389722109168
STARLINK-1936           
1 46772U 20074AK  22287.06790272  .00002720  00000+0  20143-3 0  9996
2 46772  53.0542 154.9652 0001311 109.7583 250.3547 15.06398682109192
STARLINK-1939           
1 46774U 20074AM  22286.85416162  .00044430  00000+0  20052-2 0  9999
2 46774  53.0445 138.7158 0002691 175.9066 184.1951 15.20581713109390
STARLINK-1946           
1 46776U 20074AP  22286.95023711  .00403785  00000+0  31722-2 0  9994
2 46776  53.0464  86.9777 0008452 280.0608  79.9455 15.69727114109801
STARLINK-1798           
1 46779U 20074AS  22286.83340298  .00000550  00000+0  55779-4 0  9999
2 46779  53.0543 131.0262 0001046 110.6659 249.4442 15.06396146109481
STARLINK-1832           
1 46780U 20074AT  22286.68971480  .00024599  00000+0  16675-2 0  9996
2 46780  53.0540 131.6739 0001562  78.3433 281.7731 15.06334654109462
STARLINK-1834           
1 46781U 20074AU  22287.03891007  .00003732  00000+0  26938-3 0  9993
2 46781  53.0536 140.1056 0001375 114.2249 245.8884 15.06389267109114
STARLINK-1835           
1 46782U 20074AV  22286.67859202  .00003363  00000+0  24457-3 0  9998
2 46782  53.0533 131.7175 0001485  90.0113 270.1046 15.06398159109462
STARLINK-1851           
1 46783U 20074AW  22286.82603686  .00002114  00000+0  16079-3 0  9993
2 46783  53.0528 131.0565 0001194  96.1632 263.9493 15.06389417109488
STARLINK-1882           
1 46784U 20074AX  22286.82877539  .00005052  00000+0  35788-3 0  9996
2 46784  53.0547 131.0156 0001452 120.4545 239.6588 15.06391144109482
STARLINK-1883           
1 46785U 20074AY  22286.68228650  .00002486  00000+0  18572-3 0  9995
2 46785  53.0539 131.6931 0001229 112.1175 247.9945 15.06393763109466
STARLINK-1893           
1 46786U 20074AZ  22286.79470592  .00006119  00000+0  42929-3 0  9992
2 46786  53.0522 111.2016 0001452 110.5357 249.5787 15.06403303109766
STARLINK-1899           
1 46787U 20074BA  22286.78733100  .00008338  00000+0  57783-3 0  9998
2 46787  53.0531 111.2227 0001416 108.5216 251.5927 15.06411877109766
STARLINK-1929           
1 46788U 20074BB  22286.64727142  .00002577  00000+0  19181-3 0  9992
2 46788  53.0518 111.8505 0001206  78.7881 281.3243 15.06402614109749
STARLINK-1930           
1 46789U 20074BC  22286.86936811  .00003749  00000+0  27047-3 0  9994
2 46789  53.0544 141.0270 0001381  82.0918 278.0228 15.06397039109353
STARLINK-1931           
1 46790U 20074BD  22287.03153190  .00002786  00000+0  20591-3 0  9994
2 46790  53.0526 140.1345 0001485 113.4826 246.6320 15.06395758109057
STARLINK-1933           
1 46791U 20074BE  22286.31645632  .00002031  00000+0  15519-3 0  9999
2 46791  53.0542 143.3448 0001350 109.3914 250.7221 15.06394528109272
STARLINK-1934           
1 46792U 20074BF  22287.00665255  .00002416  00000+0  18111-3 0  9998
2 46792  53.0562 130.2437 0001316 108.2657 251.8476 15.06388252109183
STARLINK-1941           
1 46793U 20074BG  22287.03521684  .00003313  00000+0  24126-3 0  9999
2 46793  53.0551 140.1230 0001202 108.2356 251.8764 15.06392033109051
STARLINK-1942           
1 46794U 20074BH  22286.84354212  .00003628  00000+0  26235-3 0  9991
2 46794  53.0524 140.9800 0001265  89.3994 270.7140 15.06399445109354
STARLINK-1944           
1 46796U 20074BK  22286.95136200  .00003293  00000+0  23989-3 0  9991
2 46796  53.0548 130.4975 0001207 109.8039 250.3080 15.06394014109188
STARLINK-1948           
1 46798U 20074BM  22286.85042942  .00001234  00000+0  10174-3 0  9996
2 46798  53.0534 155.9500 0001302 101.2977 258.8158 15.06401608109147
